{"type": "FeatureCollection", "features": [ {"type": "Feature", "properties": {"norad_id": 28649, "name": "IRS-P5 (CARTOSAT-1)", "group": "resource", "lat": 54.31059865465794, "lon": -148.15759939419806, "alt_km": 591.3344697100702, "timestamp": "2025-12-21T03:56:50.511105+00:00", "meta": {"OBJECT_NAME": "IRS-P5 (CARTOSAT-1)", "OBJECT_ID": "2005-017A", "EPOCH": "2025-12-20T19:19:56.972928", "MEAN_MOTION": 14.90429069, "ECCENTRICITY": 7.59e-05, "INCLINATION": 97.5485, "RA_OF_ASC_NODE": 20.861, "ARG_OF_PERICENTER": 52.6097, "MEAN_ANOMALY": 307.519, "EPHEMERIS_TYPE": 0, "CLASSIFICATION_TYPE": "U", "NORAD_CAT_ID": 28649, "ELEMENT_SET_NO": 999, "REV_AT_EPOCH": 11724, "BSTAR": 0.00010666, "MEAN_MOTION_DOT": 9.87e-06, "MEAN_MOTION_DDOT": 0}, "tle": {"line1": "1 28649U 05017A   25354.80552052  .00000987  00000+0  10666-3 0  9993", "line2": "2 28649  97.5485  20.8610 0000759  52.6097 307.5190 14.90429069117240"}}, "geometry": {"type": "Point", "coordinates": [-148.15759939419806, 54.31059865465794]}}, {"type": "Feature", "properties": {"norad_id": 28893, "name": "SINAH 1", "group": "resource", "lat": 36.949664357266826, "lon": 117.47061306065714, "alt_km": 674.8336582435168, "timestamp": "2025-12-21T03:56:50.511114+00:00", "meta": {"OBJECT_NAME": "SINAH 1", "OBJECT_ID": "2005-043D", "EPOCH": "2025-12-20T19:34:30.985824", "MEAN_MOTION": 14.63970163, "ECCENTRICITY": 0.0015649, "INCLINATION": 98.2608, "RA_OF_ASC_NODE": 123.3946, "ARG_OF_PERICENTER": 113.3697, "MEAN_ANOMALY": 246.9153, "EPHEMERIS_TYPE": 0, "CLASSIFICATION_TYPE": "U", "NORAD_CAT_ID": 28893, "ELEMENT_SET_NO": 999, "REV_AT_EPOCH": 7442, "BSTAR": 6.1333e-05, "MEAN_MOTION_DOT": 2.73e-06, "MEAN_MOTION_DDOT": 0}, "tle": {"line1": "1 28893U 05043D   25354.81563641  .00000273  00000+0  61333-4 0  9996", "line2": "2 28893  98.2608 123.3946 0015649 113.3697 246.9153 14.63970163 74425"}}, "geometry": {"type": "Point", "coordinates": [117.47061306065714, 36.949664357266826]}}, {"type": "Feature", "properties": {"norad_id": 29079, "name": "EROS B", "group": "resource", "lat": 5.129490761086633, "lon": 111.49252506478774, "alt_km": 357.6622373286491, "timestamp": "2025-12-21T03:56:50.511124+00:00", "meta": {"OBJECT_NAME": "EROS B", "OBJECT_ID": "2006-014A", "EPOCH": "2025-12-20T20:16:50.629152", "MEAN_MOTION": 15.70726513, "ECCENTRICITY": 0.0003586, "INCLINATION": 97.3463, "RA_OF_ASC_NODE": 111.8203, "ARG_OF_PERICENTER": 311.6239, "MEAN_ANOMALY": 48.4716, "EPHEMERIS_TYPE": 0, "CLASSIFICATION_TYPE": "U", "NORAD_CAT_ID": 29079, "ELEMENT_SET_NO": 999, "REV_AT_EPOCH": 9207, "BSTAR": 0.0010343, "MEAN_MOTION_DOT": 0.00129569, "MEAN_MOTION_DDOT": 0}, "tle": {"line1": "1 29079U 06014A   25354.84503043  .00129569  00000+0  10343-2 0  9998", "line2": "2 29079  97.3463 111.8203 0003586 311.6239  48.4716 15.70726513 92079"}}, "geometry": {"type": "Point", "coordinates": [111.49252506478774, 5.129490761086633]}}, {"type": "Feature", "properties": {"norad_id": 29228, "name": "RESURS-DK 1", "group": "resource", "lat": -3.062855900049681, "lon": 78.94578657483402, "alt_km": 533.5594781921545, "timestamp": "2025-12-21T03:56:50.511134+00:00", "meta": {"OBJECT_NAME": "RESURS-DK 1", "OBJECT_ID": "2006-021A", "EPOCH": "2025-12-20T16:50:56.205888", "MEAN_MOTION": 15.12200991, "ECCENTRICITY": 0.0006855, "INCLINATION": 69.9339, "RA_OF_ASC_NODE": 81.261, "ARG_OF_PERICENTER": 252.2232, "MEAN_ANOMALY": 107.8186, "EPHEMERIS_TYPE": 0, "CLASSIFICATION_TYPE": "U", "NORAD_CAT_ID": 29228, "ELEMENT_SET_NO": 999, "REV_AT_EPOCH": 7558, "BSTAR": 0.00010511, "MEAN_MOTION_DOT": 1.712e-05, "MEAN_MOTION_DDOT": 0}, "tle": {"line1": "1 29228U 06021A   25354.70203942  .00001712  00000+0  10511-3 0  9999", "line2": "2 29228  69.9339  81.2610 0006855 252.2232 107.8186 15.12200991 75580"}}, "geometry": {"type": "Point", "coordinates": [78.94578657483402, -3.062855900049681]}}, {"type": "Feature", "properties": {"norad_id": 29268, "name": "ARIRANG-2 (KOMPSAT-2)", "group": "resource", "lat": -40.64260871680022, "lon": -169.9941072704609, "alt_km": 677.9716852421134, "timestamp": "2025-12-21T03:56:50.511144+00:00", "meta": {"OBJECT_NAME": "ARIRANG-2 (KOMPSAT-2)", "OBJECT_ID": "2006-031A", "EPOCH": "2025-12-20T20:28:01.811136", "MEAN_MOTION": 14.64500819, "ECCENTRICITY": 0.0013165, "INCLINATION": 97.8253, "RA_OF_ASC_NODE": 182.93, "ARG_OF_PERICENTER": 281.3227, "MEAN_ANOMALY": 195.3488, "EPHEMERIS_TYPE": 0, "CLASSIFICATION_TYPE": "U", "NORAD_CAT_ID": 29268, "ELEMENT_SET_NO": 999, "REV_AT_EPOCH": 3537, "BSTAR": 8.7683e-05, "MEAN_MOTION_DOT": 4.2e-06, "MEAN_MOTION_DDOT": 0}, "tle": {"line1": "1 29268U 06031A   25354.85279874  .00000420  00000+0  87683-4 0  9997", "line2": "2 29268  97.8253 182.9300 0013165 281.3227 195.3488 14.64500819 35371"}}, "geometry": {"type": "Point", "coordinates": [-169.9941072704609, -40.64260871680022]}}, {"type": "Feature", "properties": {"norad_id": 29709, "name": "LAPAN-TUBSAT", "group": "resource", "lat": 4.576003899679403, "lon": 166.14909283818739, "alt_km": 619.3140779577352, "timestamp": "2025-12-21T03:56:50.511153+00:00", "meta": {"OBJECT_NAME": "LAPAN-TUBSAT", "OBJECT_ID": "2007-001A", "EPOCH": "2025-12-20T20:41:47.294016", "MEAN_MOTION": 14.85681309, "ECCENTRICITY": 0.0013344, "INCLINATION": 98.1252, "RA_OF_ASC_NODE": 345.1856, "ARG_OF_PERICENTER": 50.3431, "MEAN_ANOMALY": 309.8958, "EPHEMERIS_TYPE": 0, "CLASSIFICATION_TYPE": "U", "NORAD_CAT_ID": 29709, "ELEMENT_SET_NO": 999, "REV_AT_EPOCH": 2467, "BSTAR": 7.4335e-05, "MEAN_MOTION_DOT": 5.88e-06, "MEAN_MOTION_DDOT": 0}, "tle": {"line1": "1 29709U 07001A   25354.86235294  .00000588  00000+0  74335-4 0  9999", "line2": "2 29709  98.1252 345.1856 0013344  50.3431 309.8958 14.85681309 24675"}}, "geometry": {"type": "Point", "coordinates": [166.14909283818739, 4.576003899679403]}}, {"type": "Feature", "properties": {"norad_id": 31113, "name": "HAIYANG-1B", "group": "resource", "lat": -23.29244611344234, "lon": 155.477490068889, "alt_km": 803.7352352257958, "timestamp": "2025-12-21T03:56:50.511163+00:00", "meta": {"OBJECT_NAME": "HAIYANG-1B", "OBJECT_ID": "2007-010A", "EPOCH": "2025-12-20T11:53:46.556736", "MEAN_MOTION": 14.3096749, "ECCENTRICITY": 0.0013883, "INCLINATION": 98.3321, "RA_OF_ASC_NODE": 338.4536, "ARG_OF_PERICENTER": 15.9883, "MEAN_ANOMALY": 344.1736, "EPHEMERIS_TYPE": 0, "CLASSIFICATION_TYPE": "U", "NORAD_CAT_ID": 31113, "ELEMENT_SET_NO": 999, "REV_AT_EPOCH": 97507, "BSTAR": 4.2865318e-05, "MEAN_MOTION_DOT": 7.1e-07, "MEAN_MOTION_DDOT": 0}, "tle": {"line1": "1 31113U 07010A   25354.49567774  .00000071  00000+0  42865-4 0  9991", "line2": "2 31113  98.3321 338.4536 0013883  15.9883 344.1736 14.30967490975075"}}, "geometry": {"type": "Point", "coordinates": [155.477490068889, -23.29244611344234]}}, {"type": "Feature", "properties": {"norad_id": 31598, "name": "COSMO-SKYMED 1", "group": "resource", "lat": 75.25358367661562, "lon": 148.85338490326248, "alt_km": 571.5783242144407, "timestamp": "2025-12-21T03:56:50.511172+00:00", "meta": {"OBJECT_NAME": "COSMO-SKYMED 1", "OBJECT_ID": "2007-023A", "EPOCH": "2025-12-20T19:34:29.847072", "MEAN_MOTION": 14.95823502, "ECCENTRICITY": 0.0001566, "INCLINATION": 97.8837, "RA_OF_ASC_NODE": 180.2679, "ARG_OF_PERICENTER": 83.0949, "MEAN_ANOMALY": 277.0449, "EPHEMERIS_TYPE": 0, "CLASSIFICATION_TYPE": "U", "NORAD_CAT_ID": 31598, "ELEMENT_SET_NO": 999, "REV_AT_EPOCH": 311, "BSTAR": 0.00024537, "MEAN_MOTION_DOT": 2.68e-05, "MEAN_MOTION_DDOT": 0}, "tle": {"line1": "1 31598U 07023A   25354.81562323  .00002680  00000+0  24537-3 0  9996", "line2": "2 31598  97.8837 180.2679 0001566  83.0949 277.0449 14.95823502  3111"}}, "geometry": {"type": "Point", "coordinates": [148.85338490326248, 75.25358367661562]}}, {"type": "Feature", "properties": {"norad_id": 31698, "name": "TERRASAR-X", "group": "resource", "lat": 77.7981902816381, "lon": -36.78905838466231, "alt_km": 499.8473095857007, "timestamp": "2025-12-21T03:56:50.511182+00:00", "meta": {"OBJECT_NAME": "TERRASAR-X", "OBJECT_ID": "2007-026A", "EPOCH": "2025-12-20T11:47:12.844032", "MEAN_MOTION": 15.19153914, "ECCENTRICITY": 0.0001874, "INCLINATION": 97.4453, "RA_OF_ASC_NODE": 359.7585, "ARG_OF_PERICENTER": 92.6145, "MEAN_ANOMALY": 267.5304, "EPHEMERIS_TYPE": 0, "CLASSIFICATION_TYPE": "U", "NORAD_CAT_ID": 31698, "ELEMENT_SET_NO": 999, "REV_AT_EPOCH": 2609, "BSTAR": 3.1273e-05, "MEAN_MOTION_DOT": 5.9e-06, "MEAN_MOTION_DDOT": 0}, "tle": {"line1": "1 31698U 07026A   25354.49112088  .00000590  00000+0  31273-4 0  9997", "line2": "2 31698  97.4453 359.7585 0001874  92.6145 267.5304 15.19153914 26093"}}, "geometry": {"type": "Point", "coordinates": [-36.78905838466231, 77.7981902816381]}}, {"type": "Feature", "properties": {"norad_id": 32060, "name": "WORLDVIEW-1 (WV-1)", "group": "resource", "lat": -65.61043944043955, "lon": -84.09159665852137, "alt_km": 502.64434721736507, "timestamp": "2025-12-21T03:56:50.511197+00:00", "meta": {"OBJECT_NAME": "WORLDVIEW-1 (WV-1)", "OBJECT_ID": "2007-041A", "EPOCH": "2025-12-20T18:59:18.404736", "MEAN_MOTION": 15.23882673, "ECCENTRICITY": 0.000347, "INCLINATION": 97.3825, "RA_OF_ASC_NODE": 112.1576, "ARG_OF_PERICENTER": 9.726, "MEAN_ANOMALY": 350.4044, "EPHEMERIS_TYPE": 0, "CLASSIFICATION_TYPE": "U", "NORAD_CAT_ID": 32060, "ELEMENT_SET_NO": 999, "REV_AT_EPOCH": 1570, "BSTAR": 0.00023845, "MEAN_MOTION_DOT": 5.686e-05, "MEAN_MOTION_DDOT": 0}, "tle": {"line1": "1 32060U 07041A   25354.79118524  .00005686  00000+0  23845-3 0  9998", "line2": "2 32060  97.3825 112.1576 0003470   9.7260 350.4044 15.23882673 15706"}}, "geometry": {"type": "Point", "coordinates": [-84.09159665852137, -65.61043944043955]}}]}